[{"OBJECT_NAME":"UWE-4","OBJECT_ID":"2018-111E","EPOCH":"2026-03-09T17:45:41.156352","MEAN_MOTION":15.39989264,"ECCENTRICITY":0.00075308,"INCLINATION":97.5841,"RA_OF_ASC_NODE":353.0294,"ARG_OF_PERICENTER":339.4687,"MEAN_ANOMALY":20.6255,"EPHEMERIS_TYPE":0,"CLASSIFICATION_TYPE":"U","NORAD_CAT_ID":43880,"ELEMENT_SET_NO":999,"REV_AT_EPOCH":39544,"BSTAR":0.00083385764,"MEAN_MOTION_DOT":0.00033304,"MEAN_MOTION_DDOT":0},{"OBJECT_NAME":"SL-8 R\/B","OBJECT_ID":"1971-119B","EPOCH":"2026-03-09T17:26:54.866688","MEAN_MOTION":14.37860327,"ECCENTRICITY":0.05486467,"INCLINATION":73.8873,"RA_OF_ASC_NODE":175.649,"ARG_OF_PERICENTER":142.2751,"MEAN_ANOMALY":221.8237,"EPHEMERIS_TYPE":0,"CLASSIFICATION_TYPE":"U","NORAD_CAT_ID":5730,"ELEMENT_SET_NO":999,"REV_AT_EPOCH":65549,"BSTAR":0.00068082483,"MEAN_MOTION_DOT":0.00013069,"MEAN_MOTION_DDOT":0}]
